0 IRIDIUM 45
1 25104U 97082A   13281.50869186  .00000067  00000-0  16793-4 0  4512
2 25104 086.3926 098.7797 0002098 110.3035 301.7685 14.34218687827200
0 IRIDIUM 45
1 25104U 97082A   13282.41460897  .00000074  00000-0  19411-4 0  4528
2 25104 086.3926 098.4007 0002108 110.3564 296.1798 14.34218849827336
0 IRIDIUM 45
1 25104U 97082A   13283.52773078  .00000097  00000-0  27395-4 0  4535
2 25104 086.3925 097.9349 0002108 110.2455 279.9164 14.34219376827495
0 IRIDIUM 45
1 25104U 97082A   13284.50878545  .00000119  00000-0  35353-4 0  4548
2 25104 086.3925 097.5244 0002117 110.4490 301.8834 14.34219835827631
0 IRIDIUM 45
1 25104U 97082A   13285.48544547  .00000114  00000-0  33768-4 0  4552
2 25104 086.3926 097.1157 0002137 110.7226 301.1054 14.34220238827774
0 IRIDIUM 45
1 25104U 97082A   13286.45622406  .00000113  00000-0  33351-4 0  4569
2 25104 086.3927 096.7095 0002141 110.7420 270.2346 14.34220461827916
0 IRIDIUM 45
1 25104U 97082A   13287.50977769  .00000115  00000-0  34047-4 0  4577
2 25104 086.3929 096.2686 0002150 110.9663 306.2734 14.34220794828067
0 IRIDIUM 45
1 25104U 97082A   13288.48556705  .00000144  00000-0  44522-4 0  4580
2 25104 086.3930 095.8602 0002158 110.8696 301.3758 14.34221130828208
0 IRIDIUM 45
1 25104U 97082A   13289.39128631  .00000112  00000-0  32814-4 0  4591
2 25104 086.3932 095.4812 0002170 110.9862 294.7096 14.34221350828337
0 IRIDIUM 45
1 25104U 97082A   13290.10647123  .00000111  00000-0  32584-4 0  4609
2 25104 086.3933 095.1818 0002158 110.6639 025.3383 14.34221375828431
0 IRIDIUM 45
1 25104U 97082A   13291.41252384  .00000224  00000-0  73040-4 0  4613
2 25104 086.3935 094.6357 0002165 110.9492 284.1794 14.34218116828624
0 IRIDIUM 45
1 25104U 97082A   13292.46230350  .00000185  00000-0  58908-4 0  4621
2 25104 086.3937 094.1965 0002178 110.9788 300.9311 14.34218204828774
0 IRIDIUM 45
1 25104U 97082A   13293.44019603  .00000192  00000-0  61541-4 0  4632
2 25104 086.3938 093.7875 0002189 111.1308 306.6289 14.34218401828915
0 IRIDIUM 45
1 25104U 97082A   13294.48650638  .00000200  00000-0  64314-4 0  4648
2 25104 086.3938 093.3498 0002194 111.1674 305.4736 14.34218821829061
0 IRIDIUM 45
1 25104U 97082A   13295.46241823  .00000217  00000-0  70493-4 0  4653
2 25104 086.3938 092.9416 0002199 111.1001 301.1725 14.34219195829207
